{
  "type": "FeatureCollection",
  "features": [
    {
      "type": "Feature",
      "properties": {
        "norad_id": 34648,
        "name": "IRIDIUM 33 DEB",
        "group": "iridium-33-debris",
        "lat": 28.16850158447857,
        "lon": 94.89426149964055,
        "alt_km": 888.4206683395732,
        "timestamp": "2025-12-25T09:48:52.674742+00:00",
        "meta_object_name": "IRIDIUM 33 DEB",
        "meta_object_id": "1997-051JZ",
        "meta_epoch": "2025-12-24T12:40:05.266272",
        "meta_mean_motion": 14.11825085,
        "meta_eccentricity": 0.01786115,
        "meta_inclination": 86.3902,
        "meta_ra_of_asc_node": 277.1873,
        "meta_arg_of_pericenter": 261.8681,
        "meta_mean_anomaly": 96.2208,
        "meta_ephemeris_type": 0,
        "meta_classification_type": "U",
        "meta_norad_cat_id": 34648,
        "meta_element_set_no": 999,
        "meta_rev_at_epoch": 85127,
        "meta_bstar": 0.0070051894,
        "meta_mean_motion_dot": 0.00014884,
        "meta_mean_motion_ddot": 0,
        "tle_line1": "1 34648U 97051JZ  25358.52783873  .00014884  00000+0  70052-2 0  9993",
        "tle_line2": "2 34648  86.3902 277.1873 0178611 261.8681  96.2208 14.11825085851271"
      },
      "geometry": {
        "type": "Point",
        "coordinates": [
          94.89426149964055,
          28.16850158447857
        ]
      }
    },
    {
      "type": "Feature",
      "properties": {
        "norad_id": 34651,
        "name": "IRIDIUM 33 DEB",
        "group": "iridium-33-debris",
        "lat": 40.64368746666785,
        "lon": -48.01110910635561,
        "alt_km": 708.9785167975842,
        "timestamp": "2025-12-25T09:48:52.674753+00:00",
        "meta_object_name": "IRIDIUM 33 DEB",
        "meta_object_id": "1997-051KC",
        "meta_epoch": "2025-12-24T09:35:08.604960",
        "meta_mean_motion": 14.26001404,
        "meta_eccentricity": 0.01420945,
        "meta_inclination": 86.2832,
        "meta_ra_of_asc_node": 135.6173,
        "meta_arg_of_pericenter": 167.157,
        "meta_mean_anomaly": 193.3304,
        "meta_ephemeris_type": 0,
        "meta_classification_type": "U",
        "meta_norad_cat_id": 34651,
        "meta_element_set_no": 999,
        "meta_rev_at_epoch": 86062,
        "meta_bstar": 0.0035190903,
        "meta_mean_motion_dot": 9.36e-05,
        "meta_mean_motion_ddot": 0,
        "tle_line1": "1 34651U 97051KC  25358.39940515  .00009360  00000+0  35191-2 0  9998",
        "tle_line2": "2 34651  86.2832 135.6173 0142094 167.1570 193.3304 14.26001404860620"
      },
      "geometry": {
        "type": "Point",
        "coordinates": [
          -48.01110910635561,
          40.64368746666785
        ]
      }
    },
    {
      "type": "Feature",
      "properties": {
        "norad_id": 34652,
        "name": "IRIDIUM 33 DEB",
        "group": "iridium-33-debris",
        "lat": 39.38216441766361,
        "lon": -22.62153620960505,
        "alt_km": 698.4200089881742,
        "timestamp": "2025-12-25T09:48:52.674768+00:00",
        "meta_object_name": "IRIDIUM 33 DEB",
        "meta_object_id": "1997-051KD",
        "meta_epoch": "2025-12-24T09:41:33.275904",
        "meta_mean_motion": 14.6216034,
        "meta_eccentricity": 0.0025428,
        "meta_inclination": 86.3318,
        "meta_ra_of_asc_node": 334.8071,
        "meta_arg_of_pericenter": 255.3926,
        "meta_mean_anomaly": 256.8802,
        "meta_ephemeris_type": 0,
        "meta_classification_type": "U",
        "meta_norad_cat_id": 34652,
        "meta_element_set_no": 999,
        "meta_rev_at_epoch": 88654,
        "meta_bstar": 0.00099954348,
        "meta_mean_motion_dot": 5.072e-05,
        "meta_mean_motion_ddot": 0,
        "tle_line1": "1 34652U 97051KD  25358.40385736  .00005072  00000+0  99954-3 0  9993",
        "tle_line2": "2 34652  86.3318 334.8071 0025428 255.3926 256.8802 14.62160340886549"
      },
      "geometry": {
        "type": "Point",
        "coordinates": [
          -22.62153620960505,
          39.38216441766361
        ]
      }
    },
    {
      "type": "Feature",
      "properties": {
        "norad_id": 34690,
        "name": "IRIDIUM 33 DEB",
        "group": "iridium-33-debris",
        "lat": -56.347833601822714,
        "lon": 26.023075298321324,
        "alt_km": 711.206233549121,
        "timestamp": "2025-12-25T09:48:52.674788+00:00",
        "meta_object_name": "IRIDIUM 33 DEB",
        "meta_object_id": "1997-051KM",
        "meta_epoch": "2025-12-24T20:02:14.768160",
        "meta_mean_motion": 14.55137496,
        "meta_eccentricity": 0.00094344,
        "meta_inclination": 86.3772,
        "meta_ra_of_asc_node": 31.7337,
        "meta_arg_of_pericenter": 348.828,
        "meta_mean_anomaly": 189.5757,
        "meta_ephemeris_type": 0,
        "meta_classification_type": "U",
        "meta_norad_cat_id": 34690,
        "meta_element_set_no": 999,
        "meta_rev_at_epoch": 88270,
        "meta_bstar": 0.00039831575,
        "meta_mean_motion_dot": 1.741e-05,
        "meta_mean_motion_ddot": 0,
        "tle_line1": "1 34690U 97051KM  25358.83489315  .00001741  00000+0  39832-3 0  9998",
        "tle_line2": "2 34690  86.3772  31.7337 0009434 348.8280 189.5757 14.55137496882706"
      },
      "geometry": {
        "type": "Point",
        "coordinates": [
          26.023075298321324,
          -56.347833601822714
        ]
      }
    },
    {
      "type": "Feature",
      "properties": {
        "norad_id": 34693,
        "name": "IRIDIUM 33 DEB",
        "group": "iridium-33-debris",
        "lat": 42.93544702914667,
        "lon": 114.06896713488354,
        "alt_km": 470.97775697681027,
        "timestamp": "2025-12-25T09:48:52.674800+00:00",
        "meta_object_name": "IRIDIUM 33 DEB",
        "meta_object_id": "1997-051KQ",
        "meta_epoch": "2025-12-25T03:00:18.455040",
        "meta_mean_motion": 15.31024765,
        "meta_eccentricity": 0.000965,
        "meta_inclination": 86.304,
        "meta_ra_of_asc_node": 297.6587,
        "meta_arg_of_pericenter": 31.5304,
        "meta_mean_anomaly": 342.4375,
        "meta_ephemeris_type": 0,
        "meta_classification_type": "U",
        "meta_norad_cat_id": 34693,
        "meta_element_set_no": 999,
        "meta_rev_at_epoch": 89104,
        "meta_bstar": 0.0050387,
        "meta_mean_motion_dot": 0.00153987,
        "meta_mean_motion_ddot": 0,
        "tle_line1": "1 34693U 97051KQ  25359.12521360  .00153987  00000+0  50387-2 0  9998",
        "tle_line2": "2 34693  86.3040 297.6587 0009650  31.5304 342.4375 15.31024765891042"
      },
      "geometry": {
        "type": "Point",
        "coordinates": [
          114.06896713488354,
          42.93544702914667
        ]
      }
    },
    {
      "type": "Feature",
      "properties": {
        "norad_id": 34696,
        "name": "IRIDIUM 33 DEB",
        "group": "iridium-33-debris",
        "lat": -11.03914651221318,
        "lon": -157.62847539803963,
        "alt_km": 657.8587767925992,
        "timestamp": "2025-12-25T09:48:52.674811+00:00",
        "meta_object_name": "IRIDIUM 33 DEB",
        "meta_object_id": "1997-051KT",
        "meta_epoch": "2025-12-25T02:40:19.490016",
        "meta_mean_motion": 14.65659074,
        "meta_eccentricity": 0.0073881,
        "meta_inclination": 86.1858,
        "meta_ra_of_asc_node": 21.7643,
        "meta_arg_of_pericenter": 125.9017,
        "meta_mean_anomaly": 294.9986,
        "meta_ephemeris_type": 0,
        "meta_classification_type": "U",
        "meta_norad_cat_id": 34696,
        "meta_element_set_no": 999,
        "meta_rev_at_epoch": 86854,
        "meta_bstar": 0.0042164,
        "meta_mean_motion_dot": 0.00023946,
        "meta_mean_motion_ddot": 0,
        "tle_line1": "1 34696U 97051KT  25359.11133669  .00023946  00000+0  42164-2 0  9996",
        "tle_line2": "2 34696  86.1858  21.7643 0073881 125.9017 294.9986 14.65659074868546"
      },
      "geometry": {
        "type": "Point",
        "coordinates": [
          -157.62847539803963,
          -11.03914651221318
        ]
      }
    },
    {
      "type": "Feature",
      "properties": {
        "norad_id": 34765,
        "name": "IRIDIUM 33 DEB",
        "group": "iridium-33-debris",
        "lat": 25.478299638828602,
        "lon": 29.0734772534478,
        "alt_km": 765.6042141545558,
        "timestamp": "2025-12-25T09:48:52.674821+00:00",
        "meta_object_name": "IRIDIUM 33 DEB",
        "meta_object_id": "1997-051LJ",
        "meta_epoch": "2025-12-23T02:58:27.844896",
        "meta_mean_motion": 14.40490027,
        "meta_eccentricity": 0.00166531,
        "meta_inclination": 86.3383,
        "meta_ra_of_asc_node": 28.3053,
        "meta_arg_of_pericenter": 176.053,
        "meta_mean_anomaly": 247.6854,
        "meta_ephemeris_type": 0,
        "meta_classification_type": "U",
        "meta_norad_cat_id": 34765,
        "meta_element_set_no": 999,
        "meta_rev_at_epoch": 87763,
        "meta_bstar": 0.00035770807,
        "meta_mean_motion_dot": 1.159e-05,
        "meta_mean_motion_ddot": 0,
        "tle_line1": "1 34765U 97051LJ  25357.12393339  .00001159  00000+0  35771-3 0  9993",
        "tle_line2": "2 34765  86.3383  28.3053 0016653 176.0530 247.6854 14.40490027877630"
      },
      "geometry": {
        "type": "Point",
        "coordinates": [
          29.0734772534478,
          25.478299638828602
        ]
      }
    }
  ]
}